{
    "links": {
        "self": "http://www.neowsapp.com/rest/v1/neo/54087736?api_key=iIulBulltgU6a56xZRHN4H3l9WmuAYTsLGpBGhQ2"
    },
    "id": "54087736",
    "neo_reference_id": "54087736",
    "name": "(2020 VT2)",
    "designation": "2020 VT2",
    "nasa_jpl_url": "http://ssd.jpl.nasa.gov/sbdb.cgi?sstr=54087736",
    "absolute_magnitude_h": 28.054,
    "estimated_diameter": {
        "kilometers": {
            "estimated_diameter_min": 0.0065126086,
            "estimated_diameter_max": 0.0145626355
        },
        "meters": {
            "estimated_diameter_min": 6.5126085734,
            "estimated_diameter_max": 14.562635481
        },
        "miles": {
            "estimated_diameter_min": 0.0040467461,
            "estimated_diameter_max": 0.0090487994
        },
        "feet": {
            "estimated_diameter_min": 21.366826712,
            "estimated_diameter_max": 47.7776769916
        }
    },
    "is_potentially_hazardous_asteroid": false,
    "close_approach_data": [
        {
            "close_approach_date": "2020-11-06",
            "close_approach_date_full": "2020-Nov-06 04:54",
            "epoch_date_close_approach": 1604638440000,
            "relative_velocity": {
                "kilometers_per_second": "13.5911656719",
                "kilometers_per_hour": "48928.1964188296",
                "miles_per_hour": "30402.0784914666"
            },
            "miss_distance": {
                "astronomical": "0.0159359365",
                "lunar": "6.1990792985",
                "kilometers": "2383982.156855255",
                "miles": "1481337.821722319"
            },
            "orbiting_body": "Earth"
        },
        {
            "close_approach_date": "2173-08-11",
            "close_approach_date_full": "2173-Aug-11 02:12",
            "epoch_date_close_approach": 6425316720000,
            "relative_velocity": {
                "kilometers_per_second": "12.4046723178",
                "kilometers_per_hour": "44656.8203439169",
                "miles_per_hour": "27748.0115075855"
            },
            "miss_distance": {
                "astronomical": "0.1355470244",
                "lunar": "52.7277924916",
                "kilometers": "20277546.135078028",
                "miles": "12599882.9040036664"
            },
            "orbiting_body": "Earth"
        }
    ],
    "orbital_data": {
        "orbit_id": "1",
        "orbit_determination_date": "2020-11-12 09:42:09",
        "first_observation_date": "2020-11-11",
        "last_observation_date": "2020-11-12",
        "data_arc_in_days": 1,
        "observations_used": 10,
        "orbit_uncertainty": "8",
        "minimum_orbit_intersection": ".0131744",
        "jupiter_tisserand_invariant": "3.213",
        "epoch_osculation": "2459164.5",
        "eccentricity": ".629543376341248",
        "semi_major_axis": "2.402098841342402",
        "inclination": "7.285983321734705",
        "ascending_node_longitude": "48.45373499794168",
        "orbital_period": "1359.830373603057",
        "perihelion_distance": ".8898734264583062",
        "perihelion_argument": "310.7509412847111",
        "aphelion_distance": "3.914324256226497",
        "perihelion_time": "2459127.746165064067",
        "mean_anomaly": "9.730169904851827",
        "mean_motion": ".2647389019897612",
        "equinox": "J2000",
        "orbit_class": {
            "orbit_class_type": "APO",
            "orbit_class_description": "Near-Earth asteroid orbits which cross the Earth’s orbit similar to that of 1862 Apollo",
            "orbit_class_range": "a (semi-major axis) > 1.0 AU; q (perihelion) < 1.017 AU"
        }
    },
    "is_sentry_object": false
}